{
    "links": {
        "self": "http://www.neowsapp.com/rest/v1/neo/3893448?api_key=iIulBulltgU6a56xZRHN4H3l9WmuAYTsLGpBGhQ2"
    },
    "id": "3893448",
    "neo_reference_id": "3893448",
    "name": "(2019 WW1)",
    "designation": "2019 WW1",
    "nasa_jpl_url": "http://ssd.jpl.nasa.gov/sbdb.cgi?sstr=3893448",
    "absolute_magnitude_h": 21.9,
    "estimated_diameter": {
        "kilometers": {
            "estimated_diameter_min": 0.1108038821,
            "estimated_diameter_max": 0.2477650126
        },
        "meters": {
            "estimated_diameter_min": 110.8038821264,
            "estimated_diameter_max": 247.7650126055
        },
        "miles": {
            "estimated_diameter_min": 0.068850319,
            "estimated_diameter_max": 0.1539539936
        },
        "feet": {
            "estimated_diameter_min": 363.5298086356,
            "estimated_diameter_max": 812.8773639568
        }
    },
    "is_potentially_hazardous_asteroid": false,
    "close_approach_data": [
        {
            "close_approach_date": "2014-11-22",
            "close_approach_date_full": "2014-Nov-22 17:27",
            "epoch_date_close_approach": 1416677220000,
            "relative_velocity": {
                "kilometers_per_second": "27.508972921",
                "kilometers_per_hour": "99032.3025156414",
                "miles_per_hour": "61534.8215270106"
            },
            "miss_distance": {
                "astronomical": "0.4491489726",
                "lunar": "174.7189503414",
                "kilometers": "67191729.613648362",
                "miles": "41751004.7621049156"
            },
            "orbiting_body": "Earth"
        },
        {
            "close_approach_date": "2018-04-19",
            "close_approach_date_full": "2018-Apr-19 20:50",
            "epoch_date_close_approach": 1524171000000,
            "relative_velocity": {
                "kilometers_per_second": "26.6399437512",
                "kilometers_per_hour": "95903.7975044914",
                "miles_per_hour": "59590.8901771658"
            },
            "miss_distance": {
                "astronomical": "0.3974192622",
                "lunar": "154.5960929958",
                "kilometers": "59453075.122091514",
                "miles": "36942427.8377263332"
            },
            "orbiting_body": "Earth"
        },
        {
            "close_approach_date": "2019-11-13",
            "close_approach_date_full": "2019-Nov-13 11:11",
            "epoch_date_close_approach": 1573643460000,
            "relative_velocity": {
                "kilometers_per_second": "19.2901058096",
                "kilometers_per_hour": "69444.380914682",
                "miles_per_hour": "43150.0376855701"
            },
            "miss_distance": {
                "astronomical": "0.1661840664",
                "lunar": "64.6456018296",
                "kilometers": "24860782.361378568",
                "miles": "15447773.8365695184"
            },
            "orbiting_body": "Earth"
        },
        {
            "close_approach_date": "2024-11-13",
            "close_approach_date_full": "2024-Nov-13 22:53",
            "epoch_date_close_approach": 1731538380000,
            "relative_velocity": {
                "kilometers_per_second": "15.1335285374",
                "kilometers_per_hour": "54480.7027347311",
                "miles_per_hour": "33852.1899853667"
            },
            "miss_distance": {
                "astronomical": "0.280680826",
                "lunar": "109.184841314",
                "kilometers": "41989253.71944062",
                "miles": "26090912.409575756"
            },
            "orbiting_body": "Earth"
        }
    ],
    "orbital_data": {
        "orbit_id": "6",
        "orbit_determination_date": "2020-05-18 06:40:37",
        "first_observation_date": "2019-11-23",
        "last_observation_date": "2019-12-02",
        "data_arc_in_days": 9,
        "observations_used": 35,
        "orbit_uncertainty": "8",
        "minimum_orbit_intersection": ".116",
        "jupiter_tisserand_invariant": "5.291",
        "epoch_osculation": "2458811.5",
        "eccentricity": ".3540063697941326",
        "semi_major_axis": "1.151484062046813",
        "inclination": "28.67690435725081",
        "ascending_node_longitude": "59.16457441444391",
        "orbital_period": "451.3207733331045",
        "perihelion_distance": ".7438513693658186",
        "perihelion_argument": "245.5296806108741",
        "aphelion_distance": "1.559116754727806",
        "perihelion_time": "2458726.960412548590",
        "mean_anomaly": "67.43374841300539",
        "mean_motion": ".7976588299743433",
        "equinox": "J2000",
        "orbit_class": {
            "orbit_class_type": "APO",
            "orbit_class_description": "Near-Earth asteroid orbits which cross the Earth’s orbit similar to that of 1862 Apollo",
            "orbit_class_range": "a (semi-major axis) > 1.0 AU; q (perihelion) < 1.017 AU"
        }
    },
    "is_sentry_object": false
}